OBJECT_NAME,OBJECT_ID,EPOCH,MEAN_MOTION,ECCENTRICITY,INCLINATION,RA_OF_ASC_NODE,ARG_OF_PERICENTER,MEAN_ANOMALY,EPHEMERIS_TYPE,CLASSIFICATION_TYPE,NORAD_CAT_ID,ELEMENT_SET_NO,REV_AT_EPOCH,BSTAR,MEAN_MOTION_DOT,MEAN_MOTION_DDOT
SWARM A,2013-067B,2026-06-10T10:40:10.702848,15.50816914,.0002987,87.3332,58.7458,93.2628,266.8974,0,U,39452,999,70520,.16665E-3,.9649E-4,0
SWARM C,2013-067C,2026-06-10T10:40:00.626016,15.50819295,.0002973,87.3332,57.3272,92.9850,267.1751,0,U,39453,999,70516,.16572E-3,.9596E-4,0
BRITE-CA1 (TORONTO),2014-033L,2026-06-10T07:28:13.581984,14.72667174,.0077388,97.9730,290.3663,299.4198,59.9301,0,U,40020,999,64120,.973E-4,.595E-5,0
OCO 2,2014-035A,2026-06-10T10:13:13.649088,14.57105709,.0001491,98.2017,102.8220,86.5498,273.5871,0,U,40059,999,63506,.86116E-4,.343E-5,0
BRITE-PL2 (HEWELIUSZ),2014-049B,2026-06-10T06:38:13.164000,14.94572442,.0015152,97.9090,273.2238,128.9615,231.2957,0,U,40119,999,64041,.1488E-3,.1553E-4,0
MMS 1,2015-011A,2026-06-10T12:00:02.000160,0.28313099,.8324575,72.0783,348.8717,167.3403,336.1257,0,U,40482,999,139,0,-.1E-7,0
MMS 2,2015-011B,2026-06-10T12:00:02.000160,0.28313089,.8325359,72.0785,348.8739,167.3460,336.1141,0,U,40483,999,139,0,-.1E-7,0
MMS 3,2015-011C,2026-06-10T12:00:02.000160,0.28312707,.8324556,72.0815,348.8782,167.3403,336.1106,0,U,40484,999,139,0,-.1E-7,0
MMS 4,2015-011D,2026-06-10T12:00:02.000160,0.28313070,.8324151,72.0777,348.8741,167.3483,336.0986,0,U,40485,999,139,0,-.1E-7,0
ASTROSAT,2015-052A,2026-06-09T18:12:25.199136,14.82495179,.0008541,5.9953,208.8328,288.1197,71.8001,0,U,40930,999,57872,.10301E-3,.1518E-4,0
DAMPE,2015-078A,2026-06-10T13:35:19.875264,15.30768061,.0013738,97.4561,167.0009,97.5161,262.7641,0,U,41173,999,58353,.38352E-4,.1065E-4,0
PISAT,2016-059B,2026-06-10T11:14:51.938880,14.68972038,.0027896,97.8178,162.2102,224.9025,134.9925,0,U,41784,999,51875,.14282E-3,.794E-5,0
HXMT (HUIYAN),2017-034A,2026-06-10T11:46:30.293760,15.18433106,.0030198,43.0133,220.3288,103.0065,257.4158,0,U,42758,999,49664,.20674E-3,.414E-4,0
FLYING LAPTOP,2017-042G,2026-06-10T12:28:18.791616,15.01102920,.0019264,97.4659,317.3109,143.5210,216.7331,0,U,42831,999,48545,.27892E-3,.3526E-4,0
ZHANGHENG 1-01 (CSES-1),2018-015C,2026-06-10T11:50:29.937984,15.20725588,.00171,97.6864,327.0191,291.6109,68.3304,0,U,43194,999,46362,.27509E-3,.6001E-4,0
SALSAT,2020-068K,2026-06-10T06:39:18.129024,15.29700288,.0008649,97.8853,163.9217,336.5873,23.4971,0,U,46495,999,31430,.26695E-3,.7605E-4,0
IXPE,2021-121A,2026-06-10T12:00:02.000160,15.10187660,.0007615,0.2314,8.0862,337.9579,238.7763,0,U,49954,999,546,.53079E-3,.9863E-4,0
SMILE,2026-109A,2026-05-24T15:40:35.120928,14.57062785,.00091232,70.0007,229.2745,259.5159,100.4951,0,U,69123,999,80,-.42378883E-3,-.1976E-4,0
