SWARM A                 
1 39452U 13067B   26161.44456832  .00009649  00000+0  16665-3 0  9996
2 39452  87.3332  58.7458 0002987  93.2628 266.8974 15.50816914705200
SWARM C                 
1 39453U 13067C   26161.44445169  .00009596  00000+0  16572-3 0  9996
2 39453  87.3332  57.3272 0002973  92.9850 267.1751 15.50819295705165
BRITE-CA1 (TORONTO)     
1 40020U 14033L   26161.31126831  .00000595  00000+0  97300-4 0  9999
2 40020  97.9730 290.3663 0077388 299.4198  59.9301 14.72667174641202
OCO 2                   
1 40059U 14035A   26161.42585242  .00000343  00000+0  86116-4 0  9994
2 40059  98.2017 102.8220 0001491  86.5498 273.5871 14.57105709635069
BRITE-PL2 (HEWELIUSZ)   
1 40119U 14049B   26161.27654125  .00001553  00000+0  14880-3 0  9998
2 40119  97.9090 273.2238 0015152 128.9615 231.2957 14.94572442640410
MMS 1                   
1 40482U 15011A   26161.50002315 -.00000001  00000+0  00000+0 0  9998
2 40482  72.0783 348.8717 8324575 167.3403 336.1257  0.28313099  1398
MMS 2                   
1 40483U 15011B   26161.50002315 -.00000001  00000+0  00000+0 0  9999
2 40483  72.0785 348.8739 8325359 167.3460 336.1141  0.28313089  1390
MMS 3                   
1 40484U 15011C   26161.50002315 -.00000001  00000+0  00000+0 0  9990
2 40484  72.0815 348.8782 8324556 167.3403 336.1106  0.28312707  1395
MMS 4                   
1 40485U 15011D   26161.50002315 -.00000001  00000+0  00000+0 0  9991
2 40485  72.0777 348.8741 8324151 167.3483 336.0986  0.28313070  1396
ASTROSAT                
1 40930U 15052A   26160.75862499  .00001518  00000+0  10301-3 0  9996
2 40930   5.9953 208.8328 0008541 288.1197  71.8001 14.82495179578720
DAMPE                   
1 41173U 15078A   26161.56620226  .00001065  00000+0  38352-4 0  9998
2 41173  97.4561 167.0009 0013738  97.5161 262.7641 15.30768061583533
PISAT                   
1 41784U 16059B   26161.46865670  .00000794  00000+0  14282-3 0  9992
2 41784  97.8178 162.2102 0027896 224.9025 134.9925 14.68972038518753
HXMT (HUIYAN)           
1 42758U 17034A   26161.49062840  .00004140  00000+0  20674-3 0  9990
2 42758  43.0133 220.3288 0030198 103.0065 257.4158 15.18433106496646
FLYING LAPTOP           
1 42831U 17042G   26161.51966194  .00003526  00000+0  27892-3 0  9995
2 42831  97.4659 317.3109 0019264 143.5210 216.7331 15.01102920485452
ZHANGHENG 1-01 (CSES-1) 
1 43194U 18015C   26161.49340206  .00006001  00000+0  27509-3 0  9992
2 43194  97.6864 327.0191 0017100 291.6109  68.3304 15.20725588463621
SALSAT                  
1 46495U 20068K   26161.27729316  .00007605  00000+0  26695-3 0  9995
2 46495  97.8853 163.9217 0008649 336.5873  23.4971 15.29700288314300
IXPE                    
1 49954U 21121A   26161.50002315  .00009863  00000+0  53079-3 0  9992
2 49954   0.2314   8.0862 0007615 337.9579 238.7763 15.10187660  5465
SMILE                   
1 69123U 26109A   26144.65318427 -.00001976  00000+0 -42379-3 0  9994
2 69123  70.0007 229.2745 0009123 259.5159 100.4951 14.57062785   802
